H1 CPF 01  gfz 2021 08 25 00  7371 terrasarx 
H2 0702601  6201 31698    2021 08 25 00 59 42 2021 08 30 00 00 42   120 1 1  0 0 0
H9
10 0 59455  71982.000000  0    5931916.290  -3453284.202    587973.607
10 0 59455  72102.000000  0    5721934.421  -3536129.554   1482029.288
10 0 59455  72222.000000  0    5411049.882  -3552594.319   2349990.208
10 0 59455  72342.000000  0    5005867.950  -3500676.467   3176570.792
10 0 59455  72462.000000  0    4514681.139  -3379710.063   3947220.306
10 0 59455  72582.000000  0    3947295.321  -3190402.118   4648383.272
10 0 59455  72702.000000  0    3314827.715  -2934842.406   5267741.162
10 0 59455  72822.000000  0    2629481.020  -2616483.288   5794427.742
10 0 59455  72942.000000  0    1904302.041  -2240091.891   6219215.927
10 0 59455  73062.000000  0    1152928.433  -1811676.598   6534673.962
10 0 59455  73182.000000  0     389329.163  -1338388.730   6735289.383
10 0 59455  73302.000000  0    -372456.312   -828401.062   6817559.403
10 0 59455  73422.000000  0   -1118575.548   -290765.702   6780047.500
10 0 59455  73542.000000  0   -1835613.721    264746.256   6623406.792
10 0 59455  73662.000000  0   -2510833.838    827821.769   6350369.532
10 0 59455  73782.000000  0   -3132403.054   1387796.300   5965702.770
10 0 59455  73902.000000  0   -3689601.757   1933854.822   5476130.809
10 0 59455  74022.000000  0   -4173012.832   2455240.780   4890224.567
10 0 59455  74142.000000  0   -4574686.950   2941469.731   4218257.409
10 0 59455  74262.000000  0   -4888279.989   3382541.593   3472028.458
10 0 59455  74382.000000  0   -5109159.152   3769148.340   2664657.667
10 0 59455  74502.000000  0   -5234476.198   4092872.739   1810355.128
10 0 59455  74622.000000  0   -5263205.901   4346373.013    924167.176
10 0 59455  74742.000000  0   -5196146.458   4523547.573     21704.029
10 0 59455  74862.000000  0   -5035882.995   4619675.235   -881142.797
10 0 59455  74982.000000  0   -4786715.509   4631529.474  -1768489.886
10 0 59455  75102.000000  0   -4454550.771   4557461.680  -2624751.034
10 0 59455  75222.000000  0   -4046762.767   4397450.495  -3434917.874
10 0 59455  75342.000000  0   -3572025.243   4153118.004  -4184826.007
10 0 59455  75462.000000  0   -3040122.068   3827713.101  -4861400.878
10 0 59455  75582.000000  0   -2461741.382   3426063.363  -5452879.431
10 0 59455  75702.000000  0   -1848258.711   2954498.351  -5949006.755
10 0 59455  75822.000000  0   -1211511.250   2420743.873  -6341204.579
10 0 59455  75942.000000  0    -563569.635   1833790.379  -6622707.736
10 0 59455  76062.000000  0      83487.919   1203740.013  -6788669.506
10 0 59455  76182.000000  0     717795.387    541633.688  -6836236.101
10 0 59455  76302.000000  0    1327911.716   -140738.678  -6764591.779
10 0 59455  76422.000000  0    1903022.921   -831044.165  -6574970.171
10 0 59455  76542.000000  0    2433128.747  -1516623.847  -6270634.748
10 0 59455  76662.000000  0    2909214.111  -2184719.069  -5856828.784
10 0 59455  76782.000000  0    3323401.988  -2822703.863  -5340695.587
10 0 59455  76902.000000  0    3669087.276  -3418323.464  -4731166.895
10 0 59455  77022.000000  0    3941045.485  -3959930.441  -4038817.156
10 0 59455  77142.000000  0    4135515.483  -4436713.964  -3275690.445
10 0 59455  77262.000000  0    4250256.386  -4838920.178  -2455099.521
10 0 59455  77382.000000  0    4284575.634  -5158057.945  -1591397.919
10 0 59455  77502.000000  0    4239324.945  -5387084.096   -699728.572
10 0 59455  77622.000000  0    4116865.460  -5520562.026    204245.521
10 0 59455  77742.000000  0    3921001.541  -5554790.279   1104622.857
10 0 59455  77862.000000  0    3656885.497  -5487897.178   1985552.040
10 0 59455  77982.000000  0    3330893.812  -5319897.109   2831520.368
10 0 59455  78102.000000  0    2950479.117  -5052709.695   3627634.047
10 0 59455  78222.000000  0    2524002.636  -4690140.037   4359886.359
10 0 59455  78342.000000  0    2060551.190  -4237821.153   5015407.442
10 0 59455  78462.000000  0    1569742.809  -3703120.163   5582690.859
10 0 59455  78582.000000  0    1061525.866  -3095010.771   6051793.856
10 0 59455  78702.000000  0     545975.669  -2423915.084   6414506.264
10 0 59455  78822.000000  0      33094.275  -1701519.752   6664487.143
10 0 59455  78942.000000  0    -467382.593   -940569.842   6797369.323
10 0 59455  79062.000000  0    -946169.066   -154642.301   6810832.110
10 0 59455  79182.000000  0   -1394600.518    642096.758   6704639.083
10 0 59455  79302.000000  0   -1804789.860   1435146.809   6480641.711
10 0 59455  79422.000000  0   -2169766.342   2209935.772   6142749.157
10 0 59455  79542.000000  0   -2483594.869   2952087.508   5696864.391
10 0 59455  79662.000000  0   -2741473.695   3647689.872   5150787.093
10 0 59455  79782.000000  0   -2939810.228   4283558.961   4514084.242
10 0 59455  79902.000000  0   -3076272.258   4847494.846   3797927.784
10 0 59455  80022.000000  0   -3149813.206   5328523.234   3014901.763
10 0 59455  80142.000000  0   -3160670.485   5717116.732   2178781.092
10 0 59455  80262.000000  0   -3110337.446   6005390.090   1304286.691
10 0 59455  80382.000000  0   -3001508.820   6187265.664    406821.800
10 0 59455  80502.000000  0   -2838000.993   6258604.954   -497806.602
10 0 59455  80622.000000  0   -2624649.772   6217301.543  -1393675.740
10 0 59455  80742.000000  0   -2367186.584   6063331.806  -2265038.884
10 0 59455  80862.000000  0   -2072095.502   5798759.997  -3096610.046
10 0 59455  80982.000000  0   -1746458.153   5427703.933  -3873834.445
10 0 59455  81102.000000  0   -1397790.308   4956260.861  -4583143.906
10 0 59455  81222.000000  0   -1033873.877   4392395.486  -5212189.593
10 0 59455  81342.000000  0    -662588.249   3745795.724  -5750050.218
10 0 59455  81462.000000  0    -291743.758   3027697.340  -6187413.569
10 0 59455  81582.000000  0      71078.678   2250681.132  -6516726.823
10 0 59455  81702.000000  0     418677.633   1428449.810  -6732314.798
10 0 59455  81822.000000  0     744369.399    575587.410  -6830468.847
10 0 59455  81942.000000  0    1042112.857   -292695.865  -6809503.570
10 0 59455  82062.000000  0    1306618.179  -1160829.904  -6669781.817
10 0 59455  82182.000000  0    1533438.094  -2013156.525  -6413707.607
10 0 59455  82302.000000  0    1719041.574  -2834204.187  -6045689.874
10 0 59455  82422.000000  0    1860868.927  -3608964.036  -5572076.183
10 0 59455  82542.000000  0    1957366.617  -4323164.780  -5001054.101
10 0 59455  82662.000000  0    2008001.400  -4963536.984  -4342519.023
10 0 59455  82782.000000  0    2013253.721  -5518063.711  -3607913.859
10 0 59455  82902.000000  0    1974589.866  -5976214.968  -2810039.554
10 0 59455  83022.000000  0    1894412.463  -6329158.957  -1962837.904
10 0 59455  83142.000000  0    1775990.427  -6569943.134  -1081149.144
10 0 59455  83262.000000  0    1623370.861  -6693642.430   -180450.872
10 0 59455  83382.000000  0    1441273.915  -6697467.594    723420.688
10 0 59455  83502.000000  0    1234972.572  -6580831.512   1614555.295
10 0 59455  83622.000000  0    1010160.823  -6345372.641   2477259.313
10 0 59455  83742.000000  0     772814.058  -5994930.177   3296341.212
10 0 59455  83862.000000  0     529043.659  -5535476.188   4057385.576
10 0 59455  83982.000000  0     284951.458  -4975006.307   4747010.624
10 0 59455  84102.000000  0      46486.818  -4323391.283   5353105.203
10 0 59455  84222.000000  0    -180689.715  -3592193.059   5865040.220
10 0 59455  84342.000000  0    -391332.844  -2794449.600   6273851.585
10 0 59455  84462.000000  0    -580727.420  -1944434.606   6572389.793
10 0 59455  84582.000000  0    -744789.045  -1057399.127   6755438.099
10 0 59455  84702.000000  0    -880148.720   -149296.400   6819799.550
10 0 59455  84822.000000  0    -984220.567    763505.979   6764349.908
10 0 59455  84942.000000  0   -1055250.588   1664520.793   6590055.848
10 0 59455  85062.000000  0   -1092345.873   2537438.248   6299959.047
10 0 59455  85182.000000  0   -1095484.618   3366421.100   5899126.615
10 0 59455  85302.000000  0   -1065506.711   4136393.863   5394567.733
10 0 59455  85422.000000  0   -1004084.018   4833320.536   4795117.181
10 0 59455  85542.000000  0    -913672.468   5444467.715   4111286.783
10 0 59455  85662.000000  0    -797445.096   5958645.253   3355084.120
10 0 59455  85782.000000  0    -659209.405   6366420.597   2539806.054
10 0 59455  85902.000000  0    -503309.374   6660304.745   1679802.623
10 0 59455  86022.000000  0    -334512.743   6834897.360    790218.904
10 0 59455  86142.000000  0    -157888.584   6886991.808   -113277.973
10 0 59455  86262.000000  0      21322.358   6815637.644  -1014783.032
10 0 59455  86382.000000  0     197841.369   6622156.279  -1898443.902
99
